[{"OBJECT_NAME":"ONEWEB-0621","OBJECT_ID":"2023-004Y","EPOCH":"2026-03-09T21:40:41.791872","MEAN_MOTION":13.11417538,"ECCENTRICITY":0.0001609,"INCLINATION":87.8873,"RA_OF_ASC_NODE":40.799,"ARG_OF_PERICENTER":83.3986,"MEAN_ANOMALY":276.7325,"EPHEMERIS_TYPE":0,"CLASSIFICATION_TYPE":"U","NORAD_CAT_ID":55162,"ELEMENT_SET_NO":999,"REV_AT_EPOCH":15279,"BSTAR":0.0014640637,"MEAN_MOTION_DOT":5.32e-6,"MEAN_MOTION_DDOT":0},{"OBJECT_NAME":"DELTA 1 DEB","OBJECT_ID":"1975-052FU","EPOCH":"2026-03-09T08:50:37.165344","MEAN_MOTION":13.40599733,"ECCENTRICITY":0.01445822,"INCLINATION":99.6186,"RA_OF_ASC_NODE":204.878,"ARG_OF_PERICENTER":148.9499,"MEAN_ANOMALY":270.9422,"EPHEMERIS_TYPE":0,"CLASSIFICATION_TYPE":"U","NORAD_CAT_ID":21499,"ELEMENT_SET_NO":999,"REV_AT_EPOCH":68109,"BSTAR":0.0021466915,"MEAN_MOTION_DOT":1.213e-5,"MEAN_MOTION_DDOT":0}]
